[{"OBJECT_NAME":"HAWK-2C","OBJECT_ID":"2021-006CT","EPOCH":"2026-03-09T16:13:22.454976","MEAN_MOTION":15.33286436,"ECCENTRICITY":0.0006943,"INCLINATION":97.2417,"RA_OF_ASC_NODE":114.9961,"ARG_OF_PERICENTER":184.0877,"MEAN_ANOMALY":176.031,"EPHEMERIS_TYPE":0,"CLASSIFICATION_TYPE":"U","NORAD_CAT_ID":47502,"ELEMENT_SET_NO":999,"REV_AT_EPOCH":28424,"BSTAR":0.00025492914,"MEAN_MOTION_DOT":8.129e-5,"MEAN_MOTION_DDOT":0},{"OBJECT_NAME":"STARLINK-2568","OBJECT_ID":"2021-038BF","EPOCH":"2026-03-09T23:15:36.536832","MEAN_MOTION":15.30201959,"ECCENTRICITY":0.00012021,"INCLINATION":53.1616,"RA_OF_ASC_NODE":334.2576,"ARG_OF_PERICENTER":116.8644,"MEAN_ANOMALY":243.248,"EPHEMERIS_TYPE":0,"CLASSIFICATION_TYPE":"U","NORAD_CAT_ID":48406,"ELEMENT_SET_NO":999,"REV_AT_EPOCH":26744,"BSTAR":-0.00019372412,"MEAN_MOTION_DOT":-6.092e-5,"MEAN_MOTION_DDOT":0}]
